H-2A R/B                
1 28932U 06002B   26091.37072597  .00011998  00000+0  59055-3 0  9994
2 28932  98.2449 240.3595 0052452 163.6446 196.6493 15.16938607 97873
RESURS-DK 1             
1 29228U 06021A   26091.41322277  .00002186  00000+0  13004-3 0  9995
2 29228  69.9337 178.2419 0001629  43.1774 316.9519 15.12882777 90964
CZ-4B R/B               
1 29507U 06046C   26091.10188580  .00005894  00000+0  29651-3 0  9999
2 29507  97.5547 135.9485 0033017 187.0489 173.0284 15.17135934 63449
CZ-2C R/B               
1 31114U 07010B   26091.55177477  .00000175  00000+0  99608-4 0  9997
2 31114  98.4002 203.6874 0058196 226.9043 132.7257 14.20254683982966
COSMO-SKYMED 1          
1 31598U 07023A   26091.79750757  .00003934  00000+0  34968-3 0  9994
2 31598  97.8867 283.0184 0001323 102.9753 257.1616 14.96704826 18368
COSMOS 2428             
1 31792U 07029A   26091.47229244 -.00000034  00000+0  74797-5 0  9998
2 31792  70.9427 155.5275 0009719 253.4949 106.5104 14.12948503967315
SL-16 R/B               
1 31793U 07029B   26091.84586107 -.00000083  00000+0 -18073-4 0  9993
2 31793  70.9743 123.7102 0002856 277.6544 254.1564 14.14843675968640
KORONAS-FOTON           
1 33504U 09003A   26091.84197476  .00015498  00000+0  33870-3 0  9991
2 33504  82.4280 251.7929 0011588  74.4802 285.7724 15.43964681949312
CZ-2C R/B               
1 37731U 11030B   26091.39515943  .00001560  00000+0  20247-3 0  9992
2 37731  97.8582  48.2108 0050966 276.7987 242.8589 14.81300901793450
H-2A R/B                
1 38341U 12025E   26091.88259412  .00002599  00000+0  23775-3 0  9997
2 38341  98.4771  60.7942 0043002 236.0522 123.6606 14.95331430751688
SHIJIAN-16 (SJ-16)      
1 39358U 13057A   26091.89078964  .00001222  00000+0  12180-3 0  9994
2 39358  74.9721 141.1674 0015334  52.4770 307.7809 14.92432276674961
SL-4 R/B                
1 39679U 14021B   26091.67197479  .00019676  00000+0  42208-3 0  9997
2 39679  51.6061 225.0923 0094817 186.7435 173.2280 15.40016096659815
