CCSDS_OMM_VERS = 2.0
CREATION_DATE  = 
ORIGINATOR     = 

OBJECT_NAME    = H-2A R/B
OBJECT_ID      = 2006-002B
CENTER_NAME    = EARTH
REF_FRAME      = TEME
TIME_SYSTEM    = UTC
MEAN_ELEMENT_THEORY = SGP/SGP4

EPOCH          = 2026-04-01T08:53:50.723808
MEAN_MOTION    = 15.16938607
ECCENTRICITY   = .0052452
INCLINATION    = 98.2449
RA_OF_ASC_NODE = 240.3595
ARG_OF_PERICENTER = 163.6446
MEAN_ANOMALY   = 196.6493

EPHEMERIS_TYPE = 0
CLASSIFICATION_TYPE = U
NORAD_CAT_ID   = 28932
ELEMENT_SET_NO = 999
REV_AT_EPOCH   = 9787
BSTAR          = .59055E-3
MEAN_MOTION_DOT = .11998E-3
MEAN_MOTION_DDOT = 0

CCSDS_OMM_VERS = 2.0
CREATION_DATE  = 
ORIGINATOR     = 

OBJECT_NAME    = RESURS-DK 1
OBJECT_ID      = 2006-021A
CENTER_NAME    = EARTH
REF_FRAME      = TEME
TIME_SYSTEM    = UTC
MEAN_ELEMENT_THEORY = SGP/SGP4

EPOCH          = 2026-04-01T09:55:02.447328
MEAN_MOTION    = 15.12882777
ECCENTRICITY   = .0001629
INCLINATION    = 69.9337
RA_OF_ASC_NODE = 178.2419
ARG_OF_PERICENTER = 43.1774
MEAN_ANOMALY   = 316.9519

EPHEMERIS_TYPE = 0
CLASSIFICATION_TYPE = U
NORAD_CAT_ID   = 29228
ELEMENT_SET_NO = 999
REV_AT_EPOCH   = 9096
BSTAR          = .13004E-3
MEAN_MOTION_DOT = .2186E-4
MEAN_MOTION_DDOT = 0

CCSDS_OMM_VERS = 2.0
CREATION_DATE  = 
ORIGINATOR     = 

OBJECT_NAME    = CZ-4B R/B
OBJECT_ID      = 2006-046C
CENTER_NAME    = EARTH
REF_FRAME      = TEME
TIME_SYSTEM    = UTC
MEAN_ELEMENT_THEORY = SGP/SGP4

EPOCH          = 2026-04-01T02:26:42.933120
MEAN_MOTION    = 15.17135934
ECCENTRICITY   = .00330178
INCLINATION    = 97.5547
RA_OF_ASC_NODE = 135.9485
ARG_OF_PERICENTER = 187.0489
MEAN_ANOMALY   = 173.0284

EPHEMERIS_TYPE = 0
CLASSIFICATION_TYPE = U
NORAD_CAT_ID   = 29507
ELEMENT_SET_NO = 999
REV_AT_EPOCH   = 6344
BSTAR          = .29651177E-3
MEAN_MOTION_DOT = .5894E-4
MEAN_MOTION_DDOT = 0

CCSDS_OMM_VERS = 2.0
CREATION_DATE  = 
ORIGINATOR     = 

OBJECT_NAME    = CZ-2C R/B
OBJECT_ID      = 2007-010B
CENTER_NAME    = EARTH
REF_FRAME      = TEME
TIME_SYSTEM    = UTC
MEAN_ELEMENT_THEORY = SGP/SGP4

EPOCH          = 2026-04-01T13:14:33.340128
MEAN_MOTION    = 14.20254683
ECCENTRICITY   = .0058196
INCLINATION    = 98.4002
RA_OF_ASC_NODE = 203.6874
ARG_OF_PERICENTER = 226.9043
MEAN_ANOMALY   = 132.7257

EPHEMERIS_TYPE = 0
CLASSIFICATION_TYPE = U
NORAD_CAT_ID   = 31114
ELEMENT_SET_NO = 999
REV_AT_EPOCH   = 98296
BSTAR          = .99608E-4
MEAN_MOTION_DOT = .175E-5
MEAN_MOTION_DDOT = 0

CCSDS_OMM_VERS = 2.0
CREATION_DATE  = 
ORIGINATOR     = 

OBJECT_NAME    = COSMO-SKYMED 1
OBJECT_ID      = 2007-023A
CENTER_NAME    = EARTH
REF_FRAME      = TEME
TIME_SYSTEM    = UTC
MEAN_ELEMENT_THEORY = SGP/SGP4

EPOCH          = 2026-04-01T19:08:24.654048
MEAN_MOTION    = 14.96704826
ECCENTRICITY   = .0001323
INCLINATION    = 97.8867
RA_OF_ASC_NODE = 283.0184
ARG_OF_PERICENTER = 102.9753
MEAN_ANOMALY   = 257.1616

EPHEMERIS_TYPE = 0
CLASSIFICATION_TYPE = U
NORAD_CAT_ID   = 31598
ELEMENT_SET_NO = 999
REV_AT_EPOCH   = 1836
BSTAR          = .34968E-3
MEAN_MOTION_DOT = .3934E-4
MEAN_MOTION_DDOT = 0

CCSDS_OMM_VERS = 2.0
CREATION_DATE  = 
ORIGINATOR     = 

OBJECT_NAME    = COSMOS 2428
OBJECT_ID      = 2007-029A
CENTER_NAME    = EARTH
REF_FRAME      = TEME
TIME_SYSTEM    = UTC
MEAN_ELEMENT_THEORY = SGP/SGP4

EPOCH          = 2026-04-01T11:20:06.066816
MEAN_MOTION    = 14.12948503
ECCENTRICITY   = .0009719
INCLINATION    = 70.9427
RA_OF_ASC_NODE = 155.5275
ARG_OF_PERICENTER = 253.4949
MEAN_ANOMALY   = 106.5104

EPHEMERIS_TYPE = 0
CLASSIFICATION_TYPE = U
NORAD_CAT_ID   = 31792
ELEMENT_SET_NO = 999
REV_AT_EPOCH   = 96731
BSTAR          = .74797E-5
MEAN_MOTION_DOT = -.34E-6
MEAN_MOTION_DDOT = 0

CCSDS_OMM_VERS = 2.0
CREATION_DATE  = 
ORIGINATOR     = 

OBJECT_NAME    = SL-16 R/B
OBJECT_ID      = 2007-029B
CENTER_NAME    = EARTH
REF_FRAME      = TEME
TIME_SYSTEM    = UTC
MEAN_ELEMENT_THEORY = SGP/SGP4

EPOCH          = 2026-04-01T20:18:02.396448
MEAN_MOTION    = 14.14843675
ECCENTRICITY   = .0002856
INCLINATION    = 70.9743
RA_OF_ASC_NODE = 123.7102
ARG_OF_PERICENTER = 277.6544
MEAN_ANOMALY   = 254.1564

EPHEMERIS_TYPE = 0
CLASSIFICATION_TYPE = U
NORAD_CAT_ID   = 31793
ELEMENT_SET_NO = 999
REV_AT_EPOCH   = 96864
BSTAR          = -.18073E-4
MEAN_MOTION_DOT = -.83E-6
MEAN_MOTION_DDOT = 0

CCSDS_OMM_VERS = 2.0
CREATION_DATE  = 
ORIGINATOR     = 

OBJECT_NAME    = KORONAS-FOTON
OBJECT_ID      = 2009-003A
CENTER_NAME    = EARTH
REF_FRAME      = TEME
TIME_SYSTEM    = UTC
MEAN_ELEMENT_THEORY = SGP/SGP4

EPOCH          = 2026-04-01T20:12:26.619264
MEAN_MOTION    = 15.43964681
ECCENTRICITY   = .0011588
INCLINATION    = 82.4280
RA_OF_ASC_NODE = 251.7929
ARG_OF_PERICENTER = 74.4802
MEAN_ANOMALY   = 285.7724

EPHEMERIS_TYPE = 0
CLASSIFICATION_TYPE = U
NORAD_CAT_ID   = 33504
ELEMENT_SET_NO = 999
REV_AT_EPOCH   = 94931
BSTAR          = .3387E-3
MEAN_MOTION_DOT = .15498E-3
MEAN_MOTION_DDOT = 0

CCSDS_OMM_VERS = 2.0
CREATION_DATE  = 
ORIGINATOR     = 

OBJECT_NAME    = CZ-2C R/B
OBJECT_ID      = 2011-030B
CENTER_NAME    = EARTH
REF_FRAME      = TEME
TIME_SYSTEM    = UTC
MEAN_ELEMENT_THEORY = SGP/SGP4

EPOCH          = 2026-04-01T09:29:01.774752
MEAN_MOTION    = 14.81300901
ECCENTRICITY   = .0050966
INCLINATION    = 97.8582
RA_OF_ASC_NODE = 48.2108
ARG_OF_PERICENTER = 276.7987
MEAN_ANOMALY   = 242.8589

EPHEMERIS_TYPE = 0
CLASSIFICATION_TYPE = U
NORAD_CAT_ID   = 37731
ELEMENT_SET_NO = 999
REV_AT_EPOCH   = 79345
BSTAR          = .20247E-3
MEAN_MOTION_DOT = .156E-4
MEAN_MOTION_DDOT = 0

CCSDS_OMM_VERS = 2.0
CREATION_DATE  = 
ORIGINATOR     = 

OBJECT_NAME    = H-2A R/B
OBJECT_ID      = 2012-025E
CENTER_NAME    = EARTH
REF_FRAME      = TEME
TIME_SYSTEM    = UTC
MEAN_ELEMENT_THEORY = SGP/SGP4

EPOCH          = 2026-04-01T21:10:56.131968
MEAN_MOTION    = 14.95331430
ECCENTRICITY   = .0043002
INCLINATION    = 98.4771
RA_OF_ASC_NODE = 60.7942
ARG_OF_PERICENTER = 236.0522
MEAN_ANOMALY   = 123.6606

EPHEMERIS_TYPE = 0
CLASSIFICATION_TYPE = U
NORAD_CAT_ID   = 38341
ELEMENT_SET_NO = 999
REV_AT_EPOCH   = 75168
BSTAR          = .23775E-3
MEAN_MOTION_DOT = .2599E-4
MEAN_MOTION_DDOT = 0

CCSDS_OMM_VERS = 2.0
CREATION_DATE  = 
ORIGINATOR     = 

OBJECT_NAME    = SHIJIAN-16 (SJ-16)
OBJECT_ID      = 2013-057A
CENTER_NAME    = EARTH
REF_FRAME      = TEME
TIME_SYSTEM    = UTC
MEAN_ELEMENT_THEORY = SGP/SGP4

EPOCH          = 2026-04-01T21:22:44.224896
MEAN_MOTION    = 14.92432276
ECCENTRICITY   = .0015334
INCLINATION    = 74.9721
RA_OF_ASC_NODE = 141.1674
ARG_OF_PERICENTER = 52.4770
MEAN_ANOMALY   = 307.7809

EPHEMERIS_TYPE = 0
CLASSIFICATION_TYPE = U
NORAD_CAT_ID   = 39358
ELEMENT_SET_NO = 999
REV_AT_EPOCH   = 67496
BSTAR          = .1218E-3
MEAN_MOTION_DOT = .1222E-4
MEAN_MOTION_DDOT = 0

CCSDS_OMM_VERS = 2.0
CREATION_DATE  = 
ORIGINATOR     = 

OBJECT_NAME    = SL-4 R/B
OBJECT_ID      = 2014-021B
CENTER_NAME    = EARTH
REF_FRAME      = TEME
TIME_SYSTEM    = UTC
MEAN_ELEMENT_THEORY = SGP/SGP4

EPOCH          = 2026-04-01T16:07:38.621856
MEAN_MOTION    = 15.40016096
ECCENTRICITY   = .0094817
INCLINATION    = 51.6061
RA_OF_ASC_NODE = 225.0923
ARG_OF_PERICENTER = 186.7435
MEAN_ANOMALY   = 173.2280

EPHEMERIS_TYPE = 0
CLASSIFICATION_TYPE = U
NORAD_CAT_ID   = 39679
ELEMENT_SET_NO = 999
REV_AT_EPOCH   = 65981
BSTAR          = .42208E-3
MEAN_MOTION_DOT = .19676E-3
MEAN_MOTION_DDOT = 0

